{"type":"FeatureCollection","name":"tw-basins","source":"MERIT-Hydro / MERIT-Basins via mghydro.com Global Watersheds API","crs":"EPSG:4326","features":[{"type":"Feature","properties":{"name":"淡水河","area_km2":2732,"outlet":[121.455,25.122]},"geometry":{"type":"MultiPolygon","coordinates":[[[[121.3754,24.5104],[121.3821,24.5096],[121.3912,24.5246],[121.4004,24.5279],[121.3946,24.5571],[121.4096,24.5712],[121.4021,24.5912],[121.4071,24.5979],[121.4129,24.6029],[121.4237,24.5946],[121.4404,24.5929],[121.4788,24.6288],[121.4671,24.6588],[121.4771,24.6737],[121.5362,24.6879],[121.5429,24.7054],[121.5637,24.7129],[121.5754,24.7104],[121.5779,24.7179],[121.5971,24.7271],[121.5946,24.7496],[121.5871,24.7571],[121.5971,24.7712],[121.5929,24.7871],[121.6221,24.7921],[121.6246,24.8087],[121.6863,24.8171],[121.6963,24.8346],[121.7321,24.8571],[121.7613,24.8562],[121.7846,24.8746],[121.7821,24.8904],[121.7929,24.8996],[121.8187,24.9121],[121.8379,24.9112],[121.8529,24.9237],[121.8388,24.9454],[121.8454,24.9604],[121.8604,24.9638],[121.8612,24.9796],[121.8554,24.9862],[121.8421,24.9929],[121.7821,24.9812],[121.7621,24.9996],[121.7738,25.0021],[121.7854,25.0204],[121.8129,25.0413],[121.8337,25.0446],[121.8304,25.0579],[121.8404,25.0646],[121.8404,25.0813],[121.8521,25.0904],[121.8504,25.0996],[121.8304,25.1112],[121.8146,25.1112],[121.8088,25.1271],[121.8029,25.1212],[121.7946,25.1262],[121.7813,25.1446],[121.7721,25.1404],[121.7738,25.1229],[121.7412,25.1071],[121.7246,25.1379],[121.6988,25.1671],[121.6779,25.1554],[121.6188,25.1388],[121.6079,25.1296],[121.6021,25.1388],[121.5837,25.1654],[121.5537,25.1704],[121.5413,25.1871],[121.5246,25.1829],[121.5196,25.1696],[121.4146,25.1854],[121.3962,25.1771],[121.4146,25.1579],[121.4254,25.1321],[121.4013,25.1171],[121.4013,25.0779],[121.3854,25.0813],[121.3838,25.0729],[121.3713,25.0729],[121.3596,25.0613],[121.3812,25.0587],[121.3888,25.0271],[121.3812,25.0271],[121.3821,25.0212],[121.3662,25.0113],[121.3637,24.9996],[121.3363,24.9771],[121.3379,24.9704],[121.2904,24.9129],[121.2721,24.9046],[121.2704,24.8779],[121.2629,24.8762],[121.2529,24.8513],[121.2412,24.8454],[121.2412,24.8371],[121.2338,24.8379],[121.2288,24.8279],[121.2121,24.8221],[121.2113,24.8137],[121.2212,24.8004],[121.2313,24.8029],[121.2371,24.7904],[121.2604,24.7937],[121.2604,24.7813],[121.3012,24.7629],[121.3071,24.7546],[121.2979,24.7312],[121.3088,24.7254],[121.3096,24.7162],[121.3012,24.6921],[121.2813,24.6663],[121.2738,24.6646],[121.2638,24.6487],[121.2463,24.6446],[121.2504,24.6262],[121.2446,24.6154],[121.2354,24.6146],[121.1988,24.5821],[121.1929,24.5554],[121.2004,24.5479],[121.1963,24.5388],[121.2021,24.5354],[121.2029,24.5121],[121.2171,24.5154],[121.2237,24.5063],[121.2196,24.4979],[121.2429,24.4788],[121.2479,24.4662],[121.2588,24.4638],[121.2588,24.4288],[121.2671,24.4279],[121.3129,24.4371],[121.3413,24.4812],[121.3629,24.4904],[121.3754,24.5104]]]]}},{"type":"Feature","properties":{"name":"鳳山溪","area_km2":259,"outlet":[120.952,24.852]},"geometry":{"type":"MultiPolygon","coordinates":[[[[121.2246,24.7413],[121.2496,24.7446],[121.2654,24.7579],[121.2854,24.7587],[121.2929,24.7679],[121.2604,24.7813],[121.2604,24.7937],[121.2371,24.7904],[121.2313,24.8029],[121.2212,24.8004],[121.2113,24.8137],[121.2188,24.8296],[121.2037,24.8429],[121.1979,24.8412],[121.1988,24.8554],[121.1804,24.8704],[121.1587,24.8738],[121.1563,24.8821],[121.1379,24.8829],[121.1213,24.8804],[121.1121,24.8712],[121.0221,24.8546],[121.0012,24.8646],[120.9838,24.8654],[120.9729,24.8754],[120.9596,24.8771],[120.9471,24.8712],[120.9346,24.8538],[120.9613,24.8504],[120.9646,24.8388],[121.0037,24.8421],[121.0713,24.8104],[121.0829,24.7937],[121.1112,24.7929],[121.1188,24.7679],[121.1513,24.7596],[121.1437,24.7338],[121.1538,24.7121],[121.1813,24.7271],[121.1996,24.7188],[121.2246,24.7413]]]]}},{"type":"Feature","properties":{"name":"頭前溪","area_km2":565,"outlet":[120.975,24.805]},"geometry":{"type":"MultiPolygon","coordinates":[[[[121.2163,24.5938],[121.2496,24.6238],[121.2463,24.6446],[121.2638,24.6487],[121.3012,24.6921],[121.3096,24.7162],[121.3088,24.7254],[121.2979,24.7312],[121.3071,24.7546],[121.3012,24.7629],[121.2654,24.7579],[121.2496,24.7446],[121.2246,24.7413],[121.1996,24.7188],[121.1813,24.7271],[121.1538,24.7121],[121.1437,24.7338],[121.1513,24.7596],[121.1188,24.7679],[121.1112,24.7929],[121.0829,24.7937],[121.0713,24.8104],[121.0037,24.8421],[120.9646,24.8388],[120.9613,24.8504],[120.9346,24.8538],[120.9363,24.8396],[120.9479,24.8337],[120.9529,24.8121],[120.9654,24.8079],[120.9646,24.7937],[120.9771,24.7779],[120.9929,24.7754],[120.9988,24.7804],[121.0154,24.7712],[121.0421,24.7396],[121.0646,24.7404],[121.0738,24.7296],[121.0704,24.7179],[121.0829,24.7138],[121.0904,24.7004],[121.0938,24.6863],[121.0863,24.6796],[121.0863,24.6638],[121.0962,24.6404],[121.0854,24.6321],[121.0854,24.6187],[121.0763,24.6112],[121.0837,24.5904],[121.0629,24.5587],[121.0804,24.5413],[121.0787,24.5287],[121.0671,24.5229],[121.0713,24.4988],[121.0996,24.4962],[121.1246,24.5096],[121.1696,24.5029],[121.1963,24.5071],[121.2037,24.5229],[121.1963,24.5388],[121.2004,24.5479],[121.1929,24.5554],[121.1971,24.5754],[121.2013,24.5862],[121.2163,24.5938]]]]}},{"type":"Feature","properties":{"name":"中港溪","area_km2":450,"outlet":[120.87,24.68]},"geometry":{"type":"MultiPolygon","coordinates":[[[[120.9912,24.5021],[121.0138,24.5104],[121.0288,24.4929],[121.0713,24.4979],[121.0671,24.5229],[121.0787,24.5287],[121.0804,24.5413],[121.0629,24.5587],[121.0837,24.5904],[121.0763,24.6112],[121.0854,24.6187],[121.0854,24.6321],[121.0962,24.6404],[121.0863,24.6638],[121.0863,24.6796],[121.0938,24.6896],[121.0829,24.7138],[121.0704,24.7179],[121.0738,24.7296],[121.0621,24.7413],[121.0537,24.7387],[121.0487,24.7279],[121.0171,24.7304],[121.0096,24.7196],[120.9679,24.7071],[120.9412,24.7046],[120.9346,24.7129],[120.9146,24.7171],[120.9038,24.7162],[120.8912,24.7037],[120.8696,24.7004],[120.8654,24.6921],[120.8312,24.6746],[120.8287,24.6554],[120.8129,24.6262],[120.8487,24.6296],[120.8604,24.6029],[120.8838,24.6038],[120.9146,24.5946],[120.9279,24.5996],[120.9346,24.5912],[120.9463,24.5921],[120.9604,24.5746],[120.9712,24.5763],[120.9562,24.5512],[120.9513,24.5237],[120.9654,24.5054],[120.9912,24.5021]]]]}},{"type":"Feature","properties":{"name":"後龍溪","area_km2":545,"outlet":[120.765,24.608]},"geometry":{"type":"MultiPolygon","coordinates":[[[[120.8229,24.3896],[120.8429,24.3721],[120.8462,24.3596],[120.8579,24.3546],[120.8838,24.3637],[120.9096,24.3604],[120.9129,24.3679],[120.9213,24.3654],[120.9396,24.3771],[120.9562,24.3987],[121.0029,24.4088],[121.0496,24.4829],[121.0671,24.4904],[121.0613,24.4979],[121.0263,24.4937],[121.0212,24.5071],[121.0138,24.5104],[120.9996,24.5021],[120.9654,24.5054],[120.9504,24.5296],[120.9712,24.5763],[120.9604,24.5746],[120.9521,24.5854],[120.9279,24.5996],[120.9146,24.5946],[120.8838,24.6038],[120.8604,24.6029],[120.8487,24.6296],[120.8171,24.6246],[120.8079,24.6371],[120.7979,24.6363],[120.7938,24.6429],[120.7696,24.6412],[120.7529,24.6196],[120.7588,24.6013],[120.7679,24.5987],[120.7654,24.5879],[120.7712,24.5754],[120.7921,24.5538],[120.7846,24.5354],[120.7971,24.4721],[120.7862,24.4187],[120.8129,24.3888],[120.8229,24.3896]]]]}},{"type":"Feature","properties":{"name":"大安溪","area_km2":768,"outlet":[120.67,24.35]},"geometry":{"type":"MultiPolygon","coordinates":[[[[121.0362,24.2946],[121.0521,24.2979],[121.0546,24.3104],[121.0729,24.3221],[121.0929,24.3188],[121.1079,24.3313],[121.1213,24.3313],[121.1404,24.3596],[121.1679,24.3604],[121.1729,24.3729],[121.1929,24.3854],[121.1971,24.3971],[121.2096,24.3962],[121.2146,24.3796],[121.2313,24.3837],[121.2346,24.3987],[121.2429,24.4054],[121.2429,24.4196],[121.2579,24.4254],[121.2621,24.4563],[121.2196,24.4979],[121.2237,24.5063],[121.2171,24.5154],[121.1696,24.5029],[121.1246,24.5096],[121.0996,24.4962],[121.0713,24.4988],[121.0671,24.4904],[121.0496,24.4829],[121.0029,24.4088],[120.9562,24.3987],[120.9396,24.3771],[120.9213,24.3654],[120.9129,24.3679],[120.9096,24.3604],[120.8838,24.3637],[120.8579,24.3546],[120.8462,24.3596],[120.8429,24.3721],[120.8254,24.3904],[120.8171,24.3746],[120.7871,24.3837],[120.7696,24.3779],[120.7562,24.3829],[120.7471,24.3979],[120.7254,24.3637],[120.6863,24.3621],[120.6563,24.3754],[120.6129,24.4096],[120.5946,24.4071],[120.6104,24.3871],[120.6338,24.3779],[120.6379,24.3687],[120.6737,24.3421],[120.7013,24.3362],[120.7087,24.3229],[120.7188,24.3221],[120.7163,24.3113],[120.7279,24.3129],[120.7313,24.3196],[120.7596,24.3179],[120.7654,24.3004],[120.8146,24.2946],[120.8604,24.2737],[120.8821,24.2729],[120.8954,24.2821],[120.9054,24.2754],[120.9071,24.2638],[120.9721,24.2379],[120.9896,24.2662],[121.0212,24.2712],[121.0362,24.2946]]]]}},{"type":"Feature","properties":{"name":"大甲溪","area_km2":1202,"outlet":[120.64,24.29]},"geometry":{"type":"MultiPolygon","coordinates":[[[[121.0913,24.1837],[121.1079,24.2013],[121.1371,24.1971],[121.1471,24.2138],[121.1604,24.2154],[121.1646,24.2229],[121.1704,24.2246],[121.1821,24.2129],[121.2179,24.2296],[121.2371,24.2213],[121.2304,24.2071],[121.2346,24.1988],[121.2254,24.1904],[121.2254,24.1721],[121.2404,24.1563],[121.2813,24.1354],[121.2846,24.1529],[121.2804,24.1554],[121.2887,24.1638],[121.2846,24.1829],[121.3071,24.1804],[121.3254,24.1962],[121.3496,24.2004],[121.3429,24.2246],[121.3521,24.2346],[121.3521,24.2446],[121.3846,24.2554],[121.3804,24.2813],[121.4021,24.2954],[121.4046,24.3087],[121.4229,24.3087],[121.4338,24.3221],[121.4371,24.3538],[121.4504,24.3671],[121.4363,24.3837],[121.3962,24.3788],[121.3829,24.3679],[121.3729,24.3687],[121.3646,24.3896],[121.3379,24.4021],[121.3371,24.4171],[121.3271,24.4187],[121.3279,24.4337],[121.3179,24.4429],[121.3054,24.4329],[121.2454,24.4229],[121.2313,24.3837],[121.2146,24.3796],[121.2096,24.3962],[121.1971,24.3971],[121.1929,24.3854],[121.1779,24.3779],[121.1679,24.3604],[121.1404,24.3596],[121.1213,24.3313],[121.1079,24.3313],[121.0929,24.3188],[121.0729,24.3221],[121.0546,24.3104],[121.0521,24.2979],[121.0321,24.2929],[121.0212,24.2712],[120.9896,24.2662],[120.9754,24.2396],[120.9604,24.2404],[120.9071,24.2638],[120.9054,24.2754],[120.8954,24.2821],[120.8821,24.2729],[120.8604,24.2737],[120.8146,24.2946],[120.7654,24.3004],[120.7596,24.3179],[120.7313,24.3196],[120.7196,24.3104],[120.7188,24.3221],[120.7004,24.3313],[120.6563,24.3212],[120.5546,24.3354],[120.5596,24.3246],[120.5796,24.3146],[120.6246,24.3071],[120.6204,24.2854],[120.6054,24.2737],[120.6104,24.2488],[120.6271,24.2704],[120.6412,24.2712],[120.6479,24.2638],[120.6729,24.2654],[120.6921,24.2521],[120.7271,24.2604],[120.7304,24.2746],[120.7387,24.2796],[120.7488,24.2746],[120.7712,24.2787],[120.8104,24.2654],[120.8196,24.2538],[120.8213,24.2396],[120.8137,24.2329],[120.8204,24.2063],[120.8171,24.1913],[120.8004,24.1796],[120.8004,24.1737],[120.8162,24.1696],[120.8229,24.1421],[120.8346,24.1404],[120.8321,24.1246],[120.8371,24.1179],[120.8746,24.1396],[120.8946,24.1404],[120.9087,24.1537],[120.9229,24.1546],[120.9446,24.1462],[120.9496,24.1271],[120.9604,24.1204],[120.9879,24.1163],[121.0154,24.1579],[121.0296,24.1579],[121.0329,24.1487],[121.0371,24.1588],[121.0546,24.1571],[121.0913,24.1837]]]]}},{"type":"Feature","properties":{"name":"烏溪","area_km2":2106,"outlet":[120.495,24.19]},"geometry":{"type":"MultiPolygon","coordinates":[[[[120.7329,23.8513],[120.7371,23.8596],[120.7554,23.8579],[120.7604,23.8496],[120.7738,23.8454],[120.7788,23.8513],[120.7862,23.8471],[120.8421,23.8554],[120.8479,23.8588],[120.8529,23.8929],[120.8637,23.9063],[120.8762,23.9096],[120.8796,23.9254],[120.8954,23.9321],[120.9029,23.9104],[120.9163,23.8996],[120.9071,23.8921],[120.9163,23.8729],[120.9412,23.8671],[120.9496,23.8463],[120.9596,23.8396],[120.9929,23.8396],[120.9929,23.8546],[121.0088,23.8671],[121.0029,23.8854],[121.0104,23.8938],[121.0204,23.8921],[121.0288,23.9404],[121.0463,23.9438],[121.0537,23.9696],[121.0946,23.9879],[121.1179,23.9887],[121.1329,24.0237],[121.1546,24.0413],[121.1671,24.0621],[121.1821,24.1004],[121.2171,24.1163],[121.2271,24.1137],[121.2696,24.1246],[121.2721,24.1421],[121.2404,24.1563],[121.2254,24.1721],[121.2254,24.1904],[121.2346,24.1988],[121.2304,24.2071],[121.2371,24.2213],[121.2179,24.2296],[121.1821,24.2129],[121.1704,24.2246],[121.1646,24.2229],[121.1604,24.2154],[121.1471,24.2138],[121.1371,24.1971],[121.1079,24.2013],[121.0854,24.1762],[121.0546,24.1571],[121.0371,24.1588],[121.0329,24.1487],[121.0296,24.1579],[121.0187,24.1596],[120.9879,24.1163],[120.9604,24.1204],[120.9496,24.1271],[120.9446,24.1462],[120.9229,24.1546],[120.9087,24.1537],[120.8996,24.1454],[120.8746,24.1396],[120.8371,24.1179],[120.8321,24.1246],[120.8346,24.1404],[120.8229,24.1421],[120.8162,24.1696],[120.8004,24.1737],[120.8179,24.1938],[120.8196,24.2213],[120.8137,24.2329],[120.8213,24.2396],[120.8196,24.2538],[120.8021,24.2712],[120.7712,24.2787],[120.7488,24.2746],[120.7387,24.2796],[120.7304,24.2746],[120.7271,24.2604],[120.7079,24.2521],[120.6921,24.2521],[120.6729,24.2654],[120.6479,24.2638],[120.6412,24.2712],[120.6271,24.2704],[120.6079,24.2471],[120.5913,24.1904],[120.5771,24.1779],[120.5787,24.1679],[120.5329,24.1713],[120.5296,24.1904],[120.5238,24.1938],[120.5029,24.2021],[120.4904,24.2029],[120.4854,24.1971],[120.4829,24.1854],[120.4971,24.1821],[120.4971,24.1579],[120.5029,24.1629],[120.5012,24.1737],[120.5104,24.1729],[120.5088,24.1604],[120.5171,24.1529],[120.5138,24.1354],[120.5246,24.1196],[120.5221,24.1112],[120.5362,24.0996],[120.5596,24.0987],[120.5662,24.0929],[120.5512,24.0813],[120.5738,24.0729],[120.5729,24.0546],[120.5863,24.0512],[120.5929,24.0413],[120.6121,23.9904],[120.6354,23.9529],[120.6363,23.8921],[120.6221,23.8663],[120.6304,23.8554],[120.6262,23.8438],[120.6404,23.8238],[120.6446,23.8204],[120.6921,23.8404],[120.7054,23.8362],[120.7087,23.8438],[120.7329,23.8513]]]]}},{"type":"Feature","properties":{"name":"濁水溪","area_km2":3107,"outlet":[120.34,23.823]},"geometry":{"type":"MultiPolygon","coordinates":[[[[120.5279,23.7712],[120.5721,23.7846],[120.6271,23.7787],[120.6396,23.7704],[120.6471,23.6721],[120.6304,23.6363],[120.6354,23.6212],[120.6304,23.6013],[120.6054,23.5571],[120.6654,23.5012],[120.6671,23.5071],[120.7087,23.5104],[120.7087,23.5038],[120.7246,23.4946],[120.7296,23.4838],[120.7738,23.4962],[120.7788,23.5054],[120.8129,23.5063],[120.8196,23.5146],[120.8246,23.4896],[120.8354,23.4721],[120.8646,23.4737],[120.8812,23.4679],[120.8863,23.4763],[120.9137,23.4763],[120.9513,23.4671],[120.9596,23.4871],[121.0529,23.4937],[121.0629,23.4996],[121.0687,23.5179],[121.0929,23.5146],[121.0971,23.5221],[121.1171,23.5221],[121.1354,23.5154],[121.1504,23.5271],[121.1462,23.5554],[121.1596,23.5646],[121.1521,23.5729],[121.1529,23.5871],[121.1787,23.5829],[121.1921,23.5996],[121.2071,23.5954],[121.2246,23.6254],[121.2412,23.7096],[121.2387,23.7246],[121.2288,23.7346],[121.2329,23.7504],[121.2129,23.7571],[121.2062,23.7721],[121.2138,23.7821],[121.2313,23.7888],[121.2254,23.8021],[121.2346,23.8121],[121.2396,23.8421],[121.2687,23.8829],[121.2613,23.9029],[121.2763,23.9088],[121.2721,23.9471],[121.2779,23.9662],[121.2738,23.9754],[121.2638,23.9763],[121.2604,23.9929],[121.2862,24.0396],[121.2796,24.0604],[121.3004,24.0621],[121.3238,24.0862],[121.3196,24.0954],[121.3287,24.1137],[121.3146,24.1171],[121.2954,24.1329],[121.2721,24.1388],[121.2696,24.1246],[121.2596,24.1196],[121.2171,24.1163],[121.1771,24.0963],[121.1671,24.0621],[121.1546,24.0413],[121.1329,24.0237],[121.1179,23.9887],[121.0946,23.9879],[121.0537,23.9696],[121.0463,23.9438],[121.0313,23.9446],[121.0204,23.8921],[121.0104,23.8938],[121.0029,23.8854],[121.0088,23.8671],[120.9929,23.8546],[120.9912,23.8388],[120.9596,23.8396],[120.9496,23.8463],[120.9412,23.8671],[120.9163,23.8729],[120.9071,23.8888],[120.9163,23.8996],[120.9029,23.9104],[120.8954,23.9321],[120.8796,23.9254],[120.8762,23.9096],[120.8637,23.9063],[120.8529,23.8929],[120.8479,23.8588],[120.8421,23.8554],[120.7862,23.8471],[120.7788,23.8513],[120.7738,23.8454],[120.7604,23.8496],[120.7554,23.8579],[120.7371,23.8596],[120.7329,23.8513],[120.7087,23.8438],[120.7054,23.8362],[120.6921,23.8404],[120.6496,23.8246],[120.6446,23.8188],[120.6587,23.8062],[120.6554,23.7987],[120.6363,23.7904],[120.6204,23.7921],[120.5896,23.8104],[120.5004,23.8304],[120.5104,23.8388],[120.4938,23.8529],[120.4554,23.8371],[120.4287,23.8362],[120.4163,23.8454],[120.4121,23.8379],[120.3713,23.8404],[120.3413,23.8346],[120.3287,23.8379],[120.3263,23.8329],[120.3221,23.8371],[120.3263,23.8521],[120.3121,23.8538],[120.3046,23.8479],[120.2929,23.8521],[120.2887,23.8429],[120.2763,23.8404],[120.2746,23.8263],[120.2846,23.8271],[120.2887,23.8179],[120.3037,23.8104],[120.3538,23.8137],[120.3588,23.8096],[120.3637,23.8146],[120.3696,23.8071],[120.3762,23.8104],[120.4013,23.7862],[120.4079,23.7696],[120.4321,23.7646],[120.4496,23.7529],[120.4946,23.7512],[120.5054,23.7638],[120.5212,23.7629],[120.5279,23.7712]]]]}},{"type":"Feature","properties":{"name":"北港溪","area_km2":561,"outlet":[120.266,23.589]},"geometry":{"type":"MultiPolygon","coordinates":[[[[120.6054,23.5571],[120.6304,23.6013],[120.6354,23.6154],[120.6304,23.6363],[120.6471,23.6721],[120.6396,23.7704],[120.6246,23.7763],[120.5771,23.7679],[120.5354,23.7471],[120.4912,23.7413],[120.4696,23.7154],[120.4529,23.7079],[120.4304,23.7079],[120.4204,23.6904],[120.3896,23.6746],[120.3679,23.6713],[120.3404,23.6762],[120.3413,23.6479],[120.3229,23.6321],[120.3213,23.6196],[120.2771,23.6221],[120.2704,23.6096],[120.2471,23.5971],[120.2479,23.5904],[120.2271,23.5854],[120.2237,23.5787],[120.2104,23.5796],[120.2237,23.5729],[120.2546,23.5712],[120.2862,23.5938],[120.2938,23.5912],[120.2938,23.6021],[120.3063,23.6054],[120.3296,23.6004],[120.3238,23.5871],[120.3538,23.5871],[120.3729,23.6079],[120.3821,23.6088],[120.3863,23.6004],[120.4029,23.6046],[120.4262,23.5879],[120.4446,23.5879],[120.4729,23.5613],[120.5104,23.5437],[120.5321,23.5496],[120.5521,23.5479],[120.5563,23.5413],[120.5929,23.5446],[120.6046,23.5496],[120.6054,23.5571]]]]}},{"type":"Feature","properties":{"name":"朴子溪","area_km2":315,"outlet":[120.23,23.465]},"geometry":{"type":"MultiPolygon","coordinates":[[[[120.4154,23.4621],[120.4521,23.4662],[120.4671,23.4779],[120.4996,23.4804],[120.5321,23.4754],[120.5446,23.4629],[120.5696,23.4646],[120.6004,23.4446],[120.6079,23.4496],[120.6054,23.4604],[120.6221,23.4921],[120.6471,23.4937],[120.6554,23.5063],[120.6521,23.5171],[120.6088,23.5538],[120.5929,23.5446],[120.5579,23.5413],[120.5521,23.5479],[120.5104,23.5437],[120.4963,23.5504],[120.4771,23.5346],[120.4554,23.5346],[120.4513,23.5404],[120.4271,23.5371],[120.4038,23.5546],[120.3921,23.5463],[120.3721,23.5479],[120.3704,23.5196],[120.3471,23.5104],[120.3037,23.5146],[120.2938,23.4904],[120.2687,23.4929],[120.2479,23.4771],[120.2321,23.4796],[120.2254,23.4879],[120.1979,23.4871],[120.1912,23.4779],[120.1729,23.4713],[120.1729,23.4504],[120.1829,23.4529],[120.1813,23.4604],[120.2079,23.4671],[120.2071,23.4737],[120.2271,23.4621],[120.2479,23.4679],[120.2729,23.4638],[120.2829,23.4746],[120.2971,23.4771],[120.3088,23.4587],[120.3229,23.4629],[120.3254,23.4563],[120.3529,23.4504],[120.3646,23.4413],[120.3838,23.4404],[120.4154,23.4621]]]]}},{"type":"Feature","properties":{"name":"八掌溪","area_km2":459,"outlet":[120.27,23.34]},"geometry":{"type":"MultiPolygon","coordinates":[[[[120.3329,23.4046],[120.2971,23.3846],[120.2963,23.3738],[120.2771,23.3571],[120.2621,23.3554],[120.2512,23.3396],[120.2354,23.3379],[120.2188,23.3046],[120.1596,23.3096],[120.1521,23.3238],[120.1379,23.3304],[120.1363,23.3396],[120.1254,23.3346],[120.1304,23.3204],[120.1429,23.3212],[120.1587,23.3029],[120.1671,23.2979],[120.1846,23.3004],[120.2013,23.2879],[120.2163,23.2879],[120.2262,23.2954],[120.2371,23.3188],[120.2788,23.3379],[120.3471,23.3246],[120.3713,23.3421],[120.3863,23.3429],[120.3904,23.3571],[120.4096,23.3546],[120.4146,23.3671],[120.4396,23.3629],[120.4546,23.3712],[120.4788,23.3671],[120.4904,23.3729],[120.5046,23.3637],[120.5138,23.3513],[120.5263,23.3538],[120.5362,23.3429],[120.5487,23.3421],[120.5746,23.3629],[120.5871,23.3621],[120.5987,23.3712],[120.6071,23.3979],[120.6262,23.4013],[120.6363,23.3962],[120.6462,23.4021],[120.6529,23.4088],[120.6504,23.4213],[120.6571,23.4363],[120.6713,23.4396],[120.6746,23.4529],[120.6896,23.4604],[120.7163,23.4988],[120.7087,23.5104],[120.6671,23.5071],[120.6654,23.5012],[120.6546,23.5063],[120.6471,23.4937],[120.6221,23.4921],[120.6054,23.4604],[120.6079,23.4496],[120.6004,23.4446],[120.5696,23.4646],[120.5446,23.4629],[120.5321,23.4754],[120.4996,23.4804],[120.4671,23.4779],[120.4521,23.4662],[120.4229,23.4662],[120.3838,23.4404],[120.3646,23.4413],[120.3546,23.4337],[120.3446,23.4046],[120.3329,23.4046]]]]}},{"type":"Feature","properties":{"name":"急水溪","area_km2":314,"outlet":[120.206,23.261]},"geometry":{"type":"MultiPolygon","coordinates":[[[[120.5246,23.3038],[120.5238,23.3129],[120.5429,23.3296],[120.5471,23.3421],[120.5362,23.3429],[120.5263,23.3538],[120.5138,23.3513],[120.5029,23.3671],[120.4904,23.3729],[120.4788,23.3671],[120.4546,23.3712],[120.4396,23.3629],[120.4146,23.3671],[120.4054,23.3529],[120.3904,23.3571],[120.3863,23.3429],[120.3713,23.3421],[120.3521,23.3279],[120.3521,23.3221],[120.3379,23.3204],[120.3096,23.2979],[120.2662,23.2971],[120.2529,23.2846],[120.2279,23.2771],[120.2129,23.2646],[120.1929,23.2679],[120.1912,23.2563],[120.1979,23.2579],[120.2021,23.2504],[120.2229,23.2538],[120.2296,23.2488],[120.2588,23.2596],[120.2829,23.2604],[120.3154,23.2521],[120.3179,23.2404],[120.3254,23.2413],[120.3279,23.2329],[120.3504,23.2271],[120.3529,23.2146],[120.3704,23.2129],[120.3729,23.2346],[120.3779,23.2371],[120.4013,23.2304],[120.4304,23.2413],[120.4404,23.2354],[120.4688,23.2371],[120.4788,23.2296],[120.4954,23.2446],[120.5029,23.2646],[120.5221,23.2729],[120.5246,23.3038]]]]}},{"type":"Feature","properties":{"name":"曾文溪","area_km2":1208,"outlet":[120.095,23.065]},"geometry":{"type":"MultiPolygon","coordinates":[[[[120.4587,22.9913],[120.4604,23.0029],[120.4804,23.0054],[120.4821,23.0146],[120.5021,23.0263],[120.5313,23.0571],[120.5637,23.0663],[120.5913,23.1288],[120.6171,23.1629],[120.6363,23.1746],[120.6371,23.1904],[120.6446,23.2054],[120.6521,23.2079],[120.6546,23.2254],[120.6771,23.2413],[120.6779,23.2613],[120.6863,23.2613],[120.7004,23.2779],[120.7037,23.3012],[120.7163,23.3204],[120.7338,23.3337],[120.7438,23.3562],[120.7662,23.3671],[120.7646,23.3804],[120.7729,23.4004],[120.7954,23.4046],[120.8213,23.4204],[120.8229,23.4438],[120.8162,23.4529],[120.8321,23.4754],[120.8196,23.5146],[120.8129,23.5063],[120.7788,23.5054],[120.7738,23.4962],[120.7387,23.4846],[120.7296,23.4838],[120.7163,23.4988],[120.6896,23.4604],[120.6746,23.4529],[120.6713,23.4396],[120.6571,23.4363],[120.6504,23.4054],[120.6363,23.3962],[120.6262,23.4013],[120.6071,23.3979],[120.5987,23.3712],[120.5871,23.3621],[120.5746,23.3629],[120.5471,23.3421],[120.5429,23.3296],[120.5238,23.3129],[120.5221,23.2729],[120.5029,23.2646],[120.4887,23.2379],[120.4788,23.2296],[120.4688,23.2371],[120.4404,23.2354],[120.4271,23.2413],[120.4013,23.2304],[120.3729,23.2346],[120.3696,23.2104],[120.3579,23.2071],[120.3563,23.1971],[120.3471,23.1962],[120.3388,23.1821],[120.3246,23.1904],[120.3088,23.1837],[120.2887,23.1887],[120.2488,23.1812],[120.2362,23.1638],[120.2129,23.1513],[120.2171,23.1396],[120.2013,23.1329],[120.2046,23.1171],[120.1929,23.1088],[120.1979,23.1062],[120.1729,23.0946],[120.1421,23.0896],[120.1104,23.1013],[120.1012,23.0888],[120.0804,23.0787],[120.0796,23.0646],[120.0654,23.0512],[120.0804,23.0388],[120.0846,23.0521],[120.0938,23.0504],[120.0954,23.0604],[120.1071,23.0579],[120.1104,23.0771],[120.1171,23.0787],[120.1188,23.0729],[120.1329,23.0829],[120.1546,23.0796],[120.1879,23.0904],[120.2321,23.1221],[120.2504,23.1238],[120.2504,23.1296],[120.2837,23.1546],[120.2954,23.1354],[120.3171,23.1279],[120.3296,23.1304],[120.3263,23.1129],[120.3312,23.1062],[120.3238,23.0896],[120.3312,23.0829],[120.3579,23.0813],[120.3629,23.0871],[120.3704,23.0646],[120.3888,23.0496],[120.3921,23.0071],[120.3962,22.9971],[120.4087,22.9904],[120.4046,22.9704],[120.4246,22.9696],[120.4371,22.9621],[120.4429,22.9779],[120.4513,22.9771],[120.4587,22.9913]]]]}},{"type":"Feature","properties":{"name":"鹽水溪","area_km2":271,"outlet":[120.219,22.991]},"geometry":{"type":"MultiPolygon","coordinates":[[[[120.3921,23.0071],[120.3896,23.0479],[120.3704,23.0646],[120.3654,23.0846],[120.3271,23.0862],[120.3229,23.0971],[120.3312,23.1062],[120.3263,23.1129],[120.3296,23.1304],[120.3171,23.1279],[120.2954,23.1354],[120.2837,23.1546],[120.2504,23.1296],[120.2504,23.1238],[120.2321,23.1221],[120.2179,23.1104],[120.2096,23.0896],[120.2212,23.0813],[120.2146,23.0729],[120.2212,23.0529],[120.2113,23.0388],[120.2196,23.0304],[120.1946,23.0254],[120.1754,23.0096],[120.1479,23.0079],[120.1429,23.0029],[120.1462,22.9971],[120.1596,23.0029],[120.1771,22.9988],[120.1921,23.0146],[120.1963,23.0138],[120.1937,22.9954],[120.2262,22.9904],[120.2404,23.0012],[120.2404,23.0146],[120.2488,23.0196],[120.2504,23.0296],[120.2821,23.0338],[120.2788,23.0188],[120.2946,23.0063],[120.2929,22.9846],[120.3037,22.9629],[120.3571,22.9596],[120.3829,22.9496],[120.4021,22.9662],[120.4087,22.9904],[120.3962,22.9971],[120.3921,23.0071]]]]}},{"type":"Feature","properties":{"name":"二仁溪","area_km2":355,"outlet":[120.206,22.911]},"geometry":{"type":"MultiPolygon","coordinates":[[[[120.4371,22.9621],[120.4071,22.9721],[120.3829,22.9496],[120.3571,22.9596],[120.3037,22.9629],[120.2929,22.9846],[120.2946,23.0063],[120.2788,23.0188],[120.2821,23.0338],[120.2746,23.0287],[120.2579,23.0338],[120.2404,23.0146],[120.2404,23.0012],[120.2329,22.9988],[120.2362,22.9679],[120.2204,22.9587],[120.2212,22.9537],[120.1979,22.9521],[120.1846,22.9213],[120.1762,22.9179],[120.1829,22.9088],[120.1912,22.9138],[120.2262,22.9088],[120.2429,22.8946],[120.2479,22.8821],[120.2579,22.8804],[120.2646,22.8712],[120.3054,22.8946],[120.3371,22.8821],[120.3471,22.8837],[120.3546,22.8696],[120.3454,22.8463],[120.3954,22.8246],[120.4063,22.8254],[120.4079,22.8179],[120.4221,22.8137],[120.4496,22.8471],[120.4429,22.8696],[120.4671,22.8904],[120.4854,22.9396],[120.4804,23.0054],[120.4604,23.0029],[120.4546,22.9804],[120.4429,22.9779],[120.4371,22.9621]]]]}},{"type":"Feature","properties":{"name":"高屏溪","area_km2":3187,"outlet":[120.433,22.51]},"geometry":{"type":"MultiPolygon","coordinates":[[[[120.4479,22.5496],[120.4513,22.5546],[120.4704,22.5554],[120.4721,22.5646],[120.4879,22.5763],[120.4904,22.5921],[120.4846,22.5979],[120.4988,22.6404],[120.4963,22.6546],[120.5204,22.6654],[120.5329,22.6854],[120.5471,22.6879],[120.5671,22.7104],[120.5821,22.7162],[120.5904,22.7112],[120.6171,22.7154],[120.6338,22.7013],[120.6437,22.7071],[120.6538,22.7029],[120.6679,22.6896],[120.6696,22.6704],[120.6929,22.6563],[120.7037,22.6279],[120.7537,22.6121],[120.7613,22.6304],[120.7862,22.6604],[120.7921,22.6804],[120.7871,22.6929],[120.8071,22.6863],[120.8204,22.6954],[120.8354,22.6962],[120.8487,22.7179],[120.8888,22.7154],[120.8888,22.7288],[120.9046,22.7354],[120.8946,22.7437],[120.8929,22.7638],[120.9038,22.7737],[120.9029,22.8004],[120.8954,22.8096],[120.8696,22.8154],[120.8621,22.8263],[120.8646,22.8438],[120.8529,22.8562],[120.8546,22.8637],[120.8654,22.8671],[120.8563,22.8821],[120.8688,22.8863],[120.8546,22.8921],[120.8521,22.9004],[120.8287,22.9029],[120.8329,22.9146],[120.8213,22.9387],[120.8346,22.9438],[120.8296,22.9754],[120.8413,22.9838],[120.8529,23.0054],[120.8604,23.0071],[120.8604,23.0304],[120.8804,23.0354],[120.8796,23.0479],[120.8696,23.0596],[120.8863,23.0888],[120.8896,23.1112],[120.8846,23.1171],[120.8854,23.1454],[120.8779,23.1513],[120.8954,23.1604],[120.8988,23.1762],[120.9112,23.1821],[120.9063,23.2046],[120.9121,23.2096],[120.9154,23.2379],[120.9371,23.2437],[120.9721,23.2821],[120.9879,23.2804],[121.0463,23.3079],[121.0487,23.3254],[121.0179,23.3479],[120.9871,23.3588],[120.9879,23.3712],[121.0004,23.3829],[121.0071,23.3846],[121.0012,23.3912],[121.0046,23.3962],[121.0279,23.4046],[121.0279,23.4237],[121.0138,23.4337],[121.0529,23.4513],[121.0579,23.4604],[121.0387,23.4729],[121.0529,23.4937],[120.9596,23.4871],[120.9513,23.4671],[120.9137,23.4763],[120.8863,23.4763],[120.8812,23.4679],[120.8646,23.4737],[120.8254,23.4721],[120.8263,23.4638],[120.8162,23.4529],[120.8229,23.4438],[120.8213,23.4204],[120.7954,23.4046],[120.7729,23.4004],[120.7646,23.3804],[120.7662,23.3671],[120.7438,23.3562],[120.7338,23.3337],[120.7163,23.3204],[120.7037,23.3012],[120.7004,23.2779],[120.6863,23.2613],[120.6779,23.2613],[120.6771,23.2413],[120.6546,23.2254],[120.6521,23.2079],[120.6446,23.2054],[120.6371,23.1904],[120.6363,23.1746],[120.6171,23.1629],[120.5913,23.1288],[120.5637,23.0663],[120.5313,23.0571],[120.5021,23.0263],[120.4821,23.0146],[120.4788,22.9788],[120.4862,22.9779],[120.4871,22.9688],[120.4838,22.9262],[120.4671,22.8904],[120.4429,22.8696],[120.4496,22.8471],[120.4154,22.8062],[120.4321,22.7854],[120.4304,22.7771],[120.4196,22.7737],[120.4104,22.7421],[120.4021,22.7362],[120.4029,22.7188],[120.3937,22.6954],[120.4163,22.6687],[120.4213,22.6313],[120.4363,22.5954],[120.4346,22.5712],[120.4121,22.5237],[120.4163,22.4821],[120.4329,22.4838],[120.4338,22.5154],[120.4454,22.5304],[120.4479,22.5496]]]]}},{"type":"Feature","properties":{"name":"東港溪","area_km2":425,"outlet":[120.456,22.471]},"geometry":{"type":"MultiPolygon","coordinates":[[[[120.4704,22.4788],[120.4754,22.4921],[120.4846,22.4879],[120.5029,22.4921],[120.5171,22.4854],[120.5637,22.4954],[120.6262,22.5204],[120.6446,22.5396],[120.6554,22.5938],[120.6813,22.5971],[120.7046,22.6279],[120.6929,22.6563],[120.6696,22.6704],[120.6654,22.6938],[120.6437,22.7071],[120.6338,22.7013],[120.6171,22.7154],[120.5904,22.7112],[120.5821,22.7162],[120.5671,22.7104],[120.5471,22.6879],[120.5329,22.6854],[120.5204,22.6654],[120.4963,22.6546],[120.4988,22.6404],[120.4846,22.5979],[120.4904,22.5921],[120.4879,22.5763],[120.4663,22.5529],[120.4513,22.5546],[120.4571,22.5413],[120.4513,22.5338],[120.4521,22.5154],[120.4587,22.5087],[120.4521,22.5096],[120.4554,22.4937],[120.4504,22.4937],[120.4504,22.4796],[120.4387,22.4713],[120.4521,22.4654],[120.4704,22.4788]]]]}},{"type":"Feature","properties":{"name":"林邊溪","area_km2":360,"outlet":[120.52,22.418]},"geometry":{"type":"MultiPolygon","coordinates":[[[[120.7629,22.4537],[120.7521,22.4579],[120.7504,22.4788],[120.7638,22.4913],[120.7638,22.5004],[120.7529,22.5113],[120.7504,22.5346],[120.7387,22.5529],[120.7421,22.5696],[120.7496,22.5746],[120.7463,22.5904],[120.7546,22.5996],[120.7529,22.6121],[120.7096,22.6279],[120.6813,22.5971],[120.6554,22.5938],[120.6446,22.5396],[120.6321,22.5246],[120.6063,22.5121],[120.5837,22.4862],[120.5629,22.4838],[120.5571,22.4729],[120.5321,22.4612],[120.5071,22.4204],[120.5637,22.3896],[120.5629,22.4079],[120.5704,22.4146],[120.6254,22.4304],[120.6429,22.4237],[120.6504,22.4129],[120.6838,22.4229],[120.7454,22.4112],[120.7537,22.4046],[120.7729,22.4071],[120.7871,22.4154],[120.7879,22.4221],[120.7763,22.4496],[120.7629,22.4537]]]]}},{"type":"Feature","properties":{"name":"四重溪","area_km2":126,"outlet":[120.715,22.067]},"geometry":{"type":"MultiPolygon","coordinates":[[[[120.8229,22.1329],[120.8421,22.1471],[120.8396,22.1579],[120.8462,22.1762],[120.8588,22.1829],[120.8504,22.1971],[120.8571,22.1979],[120.8588,22.2112],[120.8154,22.2079],[120.7346,22.1696],[120.7379,22.1062],[120.7338,22.0862],[120.7087,22.0688],[120.7138,22.0587],[120.7204,22.0663],[120.7504,22.0671],[120.7754,22.0929],[120.7904,22.0996],[120.8137,22.0987],[120.8179,22.1096],[120.8121,22.1171],[120.8229,22.1329]]]]}},{"type":"Feature","properties":{"name":"卑南溪","area_km2":1590,"outlet":[121.13,22.78]},"geometry":{"type":"MultiPolygon","coordinates":[[[[120.9537,22.7954],[120.9729,22.8079],[120.9921,22.8362],[121.0146,22.8337],[121.0212,22.8412],[121.0446,22.8454],[121.0554,22.8571],[121.0704,22.8596],[121.0696,22.8704],[121.0812,22.8754],[121.1096,22.8604],[121.1004,22.8287],[121.1121,22.8046],[121.1112,22.7879],[121.1338,22.7696],[121.1496,22.7737],[121.1629,22.7587],[121.1771,22.7629],[121.1729,22.7721],[121.1571,22.7763],[121.1496,22.7871],[121.1521,22.8371],[121.1654,22.8679],[121.1879,22.8938],[121.1912,22.9029],[121.1846,22.9187],[121.2188,22.9779],[121.2163,23.0104],[121.2221,23.0121],[121.2262,23.0313],[121.2379,23.0454],[121.2546,23.0921],[121.2396,23.0987],[121.2246,23.0963],[121.2196,23.1029],[121.1996,23.0963],[121.1963,23.1079],[121.1704,23.1354],[121.1729,23.1471],[121.1504,23.1629],[121.1546,23.1771],[121.1504,23.1979],[121.1388,23.2021],[121.1296,23.2237],[121.0987,23.2279],[121.0929,23.2338],[121.0787,23.2329],[121.0621,23.2638],[121.0613,23.2821],[121.0504,23.3038],[121.0321,23.3038],[121.0296,23.2971],[120.9879,23.2804],[120.9721,23.2821],[120.9371,23.2437],[120.9154,23.2379],[120.9121,23.2096],[120.9063,23.2046],[120.9112,23.1821],[120.8988,23.1762],[120.8954,23.1604],[120.8779,23.1513],[120.8854,23.1454],[120.8846,23.1171],[120.8896,23.1112],[120.8863,23.0888],[120.8696,23.0596],[120.8796,23.0479],[120.8804,23.0354],[120.8604,23.0304],[120.8604,23.0071],[120.8529,23.0054],[120.8413,22.9838],[120.8296,22.9754],[120.8346,22.9438],[120.8213,22.9387],[120.8329,22.9146],[120.8287,22.9029],[120.8521,22.9004],[120.8546,22.8921],[120.8688,22.8863],[120.8563,22.8821],[120.8654,22.8671],[120.8529,22.8579],[120.8646,22.8438],[120.8621,22.8263],[120.8696,22.8154],[120.9013,22.8038],[120.9038,22.7754],[120.9463,22.7979],[120.9537,22.7954]]]]}},{"type":"Feature","properties":{"name":"秀姑巒溪","area_km2":1796,"outlet":[121.47,23.47]},"geometry":{"type":"MultiPolygon","coordinates":[[[[121.3462,23.2071],[121.3462,23.2171],[121.3571,23.2237],[121.3529,23.2321],[121.3612,23.2437],[121.3596,23.2529],[121.3787,23.2721],[121.3771,23.2996],[121.3904,23.3204],[121.3988,23.3221],[121.4096,23.3471],[121.4221,23.3546],[121.4046,23.3663],[121.3988,23.3846],[121.4254,23.4262],[121.4446,23.4387],[121.4471,23.4521],[121.4946,23.4537],[121.5021,23.4654],[121.5012,23.4746],[121.4854,23.4862],[121.4846,23.5154],[121.4921,23.5429],[121.4321,23.5479],[121.4279,23.5596],[121.4179,23.5654],[121.4262,23.5912],[121.4104,23.5888],[121.3746,23.6129],[121.3612,23.6046],[121.3421,23.6129],[121.3304,23.6112],[121.2738,23.6446],[121.2571,23.6329],[121.2463,23.6112],[121.2387,23.6137],[121.2071,23.5954],[121.1921,23.5996],[121.1787,23.5829],[121.1529,23.5871],[121.1521,23.5729],[121.1596,23.5646],[121.1462,23.5554],[121.1513,23.5463],[121.1479,23.5321],[121.1504,23.5271],[121.1354,23.5154],[121.1171,23.5221],[121.0971,23.5221],[121.0929,23.5146],[121.0687,23.5179],[121.0629,23.4996],[121.0387,23.4746],[121.0579,23.4604],[121.0529,23.4513],[121.0138,23.4337],[121.0279,23.4237],[121.0279,23.4046],[121.0046,23.3962],[121.0012,23.3912],[121.0071,23.3846],[120.9879,23.3712],[120.9871,23.3588],[121.0179,23.3479],[121.0487,23.3254],[121.0446,23.3071],[121.0563,23.2971],[121.0621,23.2638],[121.0787,23.2329],[121.0929,23.2338],[121.1054,23.2237],[121.1296,23.2237],[121.1388,23.2021],[121.1529,23.1946],[121.1521,23.1596],[121.1729,23.1471],[121.1704,23.1354],[121.1963,23.1079],[121.1996,23.0963],[121.2196,23.1029],[121.2246,23.0963],[121.2396,23.0987],[121.2579,23.0921],[121.2654,23.1054],[121.2754,23.0987],[121.2913,23.1096],[121.3154,23.1079],[121.3229,23.1221],[121.3254,23.1537],[121.3171,23.1663],[121.3238,23.1788],[121.3354,23.1788],[121.3462,23.2071]]]]}},{"type":"Feature","properties":{"name":"花蓮溪","area_km2":1514,"outlet":[121.6,23.92]},"geometry":{"type":"MultiPolygon","coordinates":[[[[121.4346,23.5987],[121.4513,23.6212],[121.4704,23.6204],[121.4854,23.6446],[121.5113,23.6504],[121.5254,23.6821],[121.5171,23.6962],[121.5187,23.7162],[121.5271,23.7288],[121.5146,23.7512],[121.5371,23.8071],[121.5537,23.8271],[121.5563,23.8429],[121.5863,23.8813],[121.6096,23.9337],[121.6088,23.9446],[121.5896,23.9488],[121.5771,23.9413],[121.5738,23.9479],[121.5404,23.9404],[121.5346,23.9504],[121.5196,23.9521],[121.5296,23.9754],[121.5054,23.9988],[121.4963,23.9988],[121.4904,24.0104],[121.4963,24.0271],[121.4838,24.0487],[121.4762,24.0512],[121.4813,24.0613],[121.4788,24.0921],[121.4663,24.0996],[121.4554,24.1262],[121.4454,24.1246],[121.4246,24.0921],[121.4163,24.0912],[121.4013,24.1046],[121.3662,24.1046],[121.3471,24.1179],[121.3304,24.1163],[121.3263,24.1071],[121.3187,24.0796],[121.3004,24.0621],[121.2796,24.0604],[121.2862,24.0396],[121.2604,23.9929],[121.2638,23.9763],[121.2738,23.9754],[121.2779,23.9662],[121.2721,23.9471],[121.2763,23.9088],[121.2613,23.9029],[121.2687,23.8829],[121.2396,23.8421],[121.2346,23.8121],[121.2254,23.8021],[121.2313,23.7888],[121.2138,23.7821],[121.2062,23.7721],[121.2129,23.7571],[121.2329,23.7504],[121.2288,23.7346],[121.2387,23.7246],[121.2412,23.7096],[121.2396,23.6879],[121.2321,23.6779],[121.2362,23.6654],[121.2138,23.6004],[121.2387,23.6137],[121.2463,23.6112],[121.2571,23.6329],[121.2738,23.6446],[121.3304,23.6112],[121.3421,23.6129],[121.3612,23.6046],[121.3746,23.6129],[121.4104,23.5888],[121.4304,23.5879],[121.4346,23.5987]]]]}},{"type":"Feature","properties":{"name":"立霧溪","area_km2":621,"outlet":[121.62,24.15]},"geometry":{"type":"MultiPolygon","coordinates":[[[[121.4246,24.0921],[121.4479,24.1262],[121.4663,24.1179],[121.4938,24.1288],[121.5079,24.1196],[121.5346,24.1146],[121.5463,24.1412],[121.5629,24.1354],[121.5829,24.1396],[121.5904,24.1313],[121.6088,24.1329],[121.6121,24.1279],[121.6271,24.1346],[121.6488,24.1296],[121.6612,24.1354],[121.6412,24.1438],[121.6446,24.1529],[121.6379,24.1654],[121.6496,24.1962],[121.6471,24.2237],[121.6546,24.2387],[121.6354,24.2521],[121.6296,24.2704],[121.6154,24.2746],[121.5721,24.2546],[121.5396,24.2729],[121.5321,24.2946],[121.5171,24.3046],[121.5138,24.3121],[121.4879,24.3196],[121.4746,24.3388],[121.4421,24.3604],[121.4321,24.3346],[121.4338,24.3221],[121.4229,24.3087],[121.4046,24.3087],[121.4021,24.2954],[121.3804,24.2813],[121.3846,24.2554],[121.3521,24.2446],[121.3521,24.2346],[121.3429,24.2246],[121.3496,24.2004],[121.3254,24.1962],[121.3071,24.1804],[121.2829,24.1804],[121.2887,24.1638],[121.2804,24.1554],[121.2846,24.1529],[121.2813,24.1354],[121.2954,24.1329],[121.3146,24.1171],[121.3471,24.1179],[121.3662,24.1046],[121.4013,24.1046],[121.4163,24.0912],[121.4246,24.0921]]]]}},{"type":"Feature","properties":{"name":"和平溪","area_km2":567,"outlet":[121.73,24.295]},"geometry":{"type":"MultiPolygon","coordinates":[[[[121.6412,24.2871],[121.6504,24.2979],[121.6754,24.3004],[121.7037,24.2896],[121.7188,24.2721],[121.7346,24.2896],[121.7329,24.3071],[121.7463,24.3121],[121.7721,24.3087],[121.7671,24.3204],[121.7596,24.3212],[121.7646,24.3346],[121.7554,24.3454],[121.7604,24.3762],[121.7488,24.3863],[121.7338,24.3712],[121.7196,24.3696],[121.7138,24.3896],[121.6912,24.3912],[121.6679,24.4079],[121.6604,24.4146],[121.6612,24.4229],[121.6554,24.4237],[121.6554,24.4488],[121.6471,24.4504],[121.6363,24.4654],[121.6412,24.4812],[121.6363,24.5038],[121.6112,24.5104],[121.6088,24.5196],[121.5946,24.5196],[121.5846,24.5162],[121.5696,24.5221],[121.5471,24.4954],[121.5238,24.4946],[121.5171,24.4788],[121.4771,24.4713],[121.4788,24.4563],[121.4587,24.4296],[121.4587,24.4138],[121.4421,24.4013],[121.4371,24.3829],[121.4471,24.3746],[121.4504,24.3646],[121.4446,24.3604],[121.4529,24.3513],[121.4746,24.3388],[121.4879,24.3196],[121.5138,24.3121],[121.5321,24.2946],[121.5396,24.2729],[121.5487,24.2721],[121.5654,24.2571],[121.5871,24.2579],[121.6154,24.2746],[121.6304,24.2704],[121.6412,24.2871]]]]}},{"type":"Feature","properties":{"name":"蘭陽溪","area_km2":841,"outlet":[121.791,24.712]},"geometry":{"type":"MultiPolygon","coordinates":[[[[121.4779,24.4629],[121.4804,24.4737],[121.5171,24.4788],[121.5271,24.4962],[121.5471,24.4954],[121.5696,24.5221],[121.5829,24.5196],[121.6046,24.5487],[121.6171,24.5562],[121.6813,24.5613],[121.6904,24.5746],[121.7054,24.5804],[121.7154,24.5721],[121.7254,24.5746],[121.7429,24.5671],[121.7488,24.5846],[121.7346,24.5912],[121.7212,24.6204],[121.7313,24.6379],[121.7246,24.6438],[121.7271,24.6554],[121.7379,24.6554],[121.7496,24.6629],[121.7496,24.6696],[121.7662,24.6746],[121.7738,24.6929],[121.7662,24.7037],[121.7887,24.7021],[121.7971,24.7121],[121.8071,24.7054],[121.8329,24.7071],[121.8329,24.7121],[121.8054,24.7188],[121.7687,24.7171],[121.7638,24.7271],[121.7237,24.7338],[121.6829,24.7087],[121.6612,24.7079],[121.6579,24.7171],[121.6663,24.7271],[121.6496,24.7338],[121.6304,24.7604],[121.6304,24.7838],[121.6229,24.7921],[121.6071,24.7913],[121.5929,24.7871],[121.5962,24.7671],[121.5871,24.7613],[121.5971,24.7271],[121.5779,24.7179],[121.5754,24.7104],[121.5637,24.7129],[121.5429,24.7054],[121.5362,24.6879],[121.4771,24.6737],[121.4671,24.6604],[121.4771,24.6262],[121.4654,24.6212],[121.4404,24.5929],[121.4237,24.5946],[121.4129,24.6029],[121.4071,24.5979],[121.4021,24.5912],[121.4096,24.5712],[121.3946,24.5571],[121.4004,24.5279],[121.3912,24.5246],[121.3821,24.5096],[121.3729,24.5104],[121.3579,24.4862],[121.3413,24.4812],[121.3179,24.4446],[121.3279,24.4337],[121.3271,24.4187],[121.3371,24.4171],[121.3379,24.4021],[121.3646,24.3896],[121.3688,24.3721],[121.3829,24.3679],[121.3962,24.3788],[121.4379,24.3829],[121.4471,24.4088],[121.4587,24.4138],[121.4587,24.4296],[121.4688,24.4371],[121.4779,24.4629]]]]}}]}
